[{"OBJECT_NAME":"STARLINK-30249","OBJECT_ID":"2023-119S","EPOCH":"2026-03-09T22:00:01.999584","MEAN_MOTION":15.22731923,"ECCENTRICITY":0.0001613,"INCLINATION":43.0001,"RA_OF_ASC_NODE":79.6364,"ARG_OF_PERICENTER":251.0445,"MEAN_ANOMALY":294.4503,"EPHEMERIS_TYPE":0,"CLASSIFICATION_TYPE":"U","NORAD_CAT_ID":57618,"ELEMENT_SET_NO":999,"REV_AT_EPOCH":578,"BSTAR":0.044527608,"MEAN_MOTION_DOT":0.01150324,"MEAN_MOTION_DDOT":0},{"OBJECT_NAME":"YAM-6","OBJECT_ID":"2024-043AE","EPOCH":"2026-03-09T22:02:57.551424","MEAN_MOTION":15.35277504,"ECCENTRICITY":0.00081711,"INCLINATION":97.5396,"RA_OF_ASC_NODE":207.5012,"ARG_OF_PERICENTER":216.2976,"MEAN_ANOMALY":143.7714,"EPHEMERIS_TYPE":0,"CLASSIFICATION_TYPE":"U","NORAD_CAT_ID":59126,"ELEMENT_SET_NO":999,"REV_AT_EPOCH":11207,"BSTAR":0.00038647304,"MEAN_MOTION_DOT":0.00013176,"MEAN_MOTION_DDOT":0}]
